ONEWEB-0012             
1 44057U 19010A   26177.67679411 -.00000011  00000+0 -61760-4 0  9992
2 44057  87.9089 226.9009 0001821  86.3702 273.7637 13.16595164352814
ONEWEB-0010             
1 44058U 19010B   26177.70212572  .00000010  00000+0 -79351-5 0  9992
2 44058  87.9089 226.8914 0002025 105.7810 254.3544 13.16595460352868
ONEWEB-0008             
1 44059U 19010C   26177.57545274  .00000131  00000+0  31002-3 0  9998
2 44059  87.9087 226.9121 0002318  93.8647 266.2749 13.16596214352966
ONEWEB-0007             
1 44060U 19010D   26177.69409532 -.00000019  00000+0 -83786-4 0  9993
2 44060  87.9001 257.3273 0001726 103.2525 256.8798 13.15548825352629
ONEWEB-0006             
1 44061U 19010E   26177.69805963 -.00001285  00000+0 -34493-2 0  9997
2 44061  87.9012 257.2915 0002084 103.8910 256.2452 13.15537363352677
ONEWEB-0011             
1 44062U 19010F   26177.66636244  .00000137  00000+0  33053-3 0  9994
2 44062  87.9008 257.3077 0002171 102.8029 257.3344 13.15548154352661
ONEWEB-0013             
1 45131U 20008A   26177.41577532  .00000541  00000+0  15330-2 0  9994
2 45131  87.8507  50.9628 0001856  51.5660 308.5633 13.09454886307279
ONEWEB-0017             
1 45132U 20008B   26177.31538334 -.00000446  00000+0 -13144-2 0  9998
2 45132  87.8822  34.4503 0001791  92.0444 268.0888 13.10363184309149
ONEWEB-0020             
1 45133U 20008C   26177.36118284 -.00002071  00000+0 -59705-2 0  9991
2 45133  87.8828  34.4397 0001828  86.2032 273.9305 13.10386303309547
ONEWEB-0021             
1 45134U 20008D   26177.60550980 -.00007202  00000+0 -20675-1 0  9996
2 45134  87.8818  34.4063 0001583  85.2810 274.8498 13.10407222309882
ONEWEB-0023             
1 45136U 20008F   26177.54020925 -.00000287  00000+0 -85864-3 0  9991
2 45136  87.8827  34.4022 0001954  80.5249 279.6100 13.10373073309301
ONEWEB-0024             
1 45137U 20008G   26177.58868193 -.00001227  00000+0 -35523-2 0  9994
2 45137  87.8836  34.3853 0001738  88.3866 271.7461 13.10381664309470
ONEWEB-0025             
1 45138U 20008H   26177.58845948  .00033518  00000+0  95858-1 0  9990
2 45138  87.8841  34.3753 0002597 110.3181 249.8226 13.10213528309801
ONEWEB-0026             
1 45139U 20008J   26177.54307154  .00000455  00000+0  12487-2 0  9991
2 45139  87.8880  19.2053 0001897  91.6165 268.5180 13.11416567312333
ONEWEB-0028             
1 45140U 20008K   26177.28958207 -.00000440  00000+0 -12773-2 0  9999
2 45140  87.8877  19.2640 0001765  68.9120 291.2196 13.11416709309812
ONEWEB-0032             
1 45141U 20008L   26177.31719899  .00000289  00000+0  79301-3 0  9996
2 45141  87.8823  34.4519 0001946  69.9204 290.2133 13.10364619309498
ONEWEB-0033             
1 45142U 20008M   26177.36796699  .00000432  00000+0  12013-2 0  9991
2 45142  87.8821  34.4480 0001867 101.3596 258.7741 13.10373832309414
ONEWEB-0035             
1 45143U 20008N   26177.31209721 -.00000308  00000+0 -91909-3 0  9998
2 45143  87.8821  34.4525 0001848  88.0052 272.1287 13.10373836309130
ONEWEB-0036             
1 45144U 20008P   26177.36604219  .00025387  00000+0  72662-1 0  9990
2 45144  87.8838  34.4559 0001889  77.5467 282.5871 13.10210808309564
ONEWEB-0038             
1 45145U 20008Q   26177.55338387  .00000492  00000+0  13524-2 0  9995
2 45145  87.8896  19.2134 0000487 154.0675 206.0478 13.11415191311553
ONEWEB-0039             
1 45146U 20008R   26177.29500716  .00000684  00000+0  19219-2 0  9994
2 45146  87.8822  34.4530 0001714  69.0718 291.0592 13.10370568309352
ONEWEB-0040             
1 45147U 20008S   26177.59362703  .00000734  00000+0  20668-2 0  9996
2 45147  87.8830  34.4062 0001874  75.8579 284.2757 13.10379056309098
ONEWEB-0043             
1 45149U 20008U   26177.13724191 -.00002242  00000+0 -64619-2 0  9993
2 45149  87.8825  34.4839 0001870  61.6599 298.4717 13.10350003309350
ONEWEB-0044             
1 45150U 20008V   26177.54785985 -.00000459  00000+0 -13520-2 0  9991
2 45150  87.8832  34.4028 0001755  79.6777 280.4548 13.10350144309707
ONEWEB-0045             
1 45151U 20008W   26177.54816062  .00000513  00000+0  14116-2 0  9994
2 45151  87.8891  19.1964 0001723  84.1585 275.9740 13.11416215311636
ONEWEB-0047             
1 45152U 20008X   26177.31182356 -.00000350  00000+0 -10379-2 0  9990
2 45152  87.8831  34.4491 0001669  90.4828 269.6491 13.10373910309391
ONEWEB-0048             
1 45153U 20008Y   26177.30688752 -.00001649  00000+0 -47604-2 0  9994
2 45153  87.8822  34.4707 0001814  86.9738 273.1597 13.10379812309006
ONEWEB-0049             
1 45154U 20008Z   26177.53920174 -.00000259  00000+0 -77794-3 0  9997
2 45154  87.8819  34.4136 0002184  79.2103 280.9270 13.10373164309256
ONEWEB-0051             
1 45155U 20008AA  26177.54647753  .00000164  00000+0  42567-3 0  9991
2 45155  87.8884  19.2036 0001856  87.4696 272.6644 13.11419484312313
ONEWEB-0052             
1 45156U 20008AB  26177.55986433 -.00000566  00000+0 -16569-2 0  9994
2 45156  87.8831  34.3962 0002156  77.1216 283.0152 13.10359061309162
